51649,ONEWEB-0461,2022,109.29,148.0,+,87.9,Active,1,LEO,French Guiana,UK,Commercial,Communications,Soyuz,1 51649U 22012AD  25063.48794929  .00000013  00000+0  27926-7 0  9996,2 51649  87.9017  99.4237 0001825  95.0113 265.1227 13.17648087152039,13.17648087,0.0001825,LEO
51650,ONEWEB-0463,2022,109.29,148.0,+,87.9,Active,1,LEO,French Guiana,UK,Commercial,Communications,Soyuz,1 51650U 22012AE  25063.46939007  .00000034  00000+0  55139-4 0  9991,2 51650  87.9021  99.4858 0001898  98.4821 261.6525 13.17647680151813,13.1764768,0.0001898,LEO
51651,ONEWEB-0464,2022,109.89,148.0,+,87.89,Active,1,LEO,French Guiana,UK,Commercial,Communications,Soyuz,1 51651U 22012AF  25063.43429384 -.00000545  00000+0 -15964-2 0  9990,2 51651  87.8874 129.9203 0002259  99.6225 260.5157 13.10372503147800,13.10372503,0.0002259,LEO
51652,ONEWEB-0468,2022,109.89,148.0,+,87.89,Active,1,LEO,French Guiana,UK,Commercial,Communications,Soyuz,1 51652U 22012AG  25063.44093187 -.00000585  00000+0 -17130-2 0  9991,2 51652  87.8875 129.9108 0001973 103.1266 257.0081 13.10373336147783,13.10373336,0.0001973,LEO
51653,ONEWEB-0473,2022,109.89,148.0,+,87.89,Active,1,LEO,French Guiana,UK,Commercial,Communications,Soyuz,1 51653U 22012AH  25063.42599751 -.00000333  00000+0 -98987-3 0  9999,2 51653  87.8872 129.9176 0002037 105.8937 254.2414 13.10370676147785,13.10370676,0.0002037,LEO
51654,ONEWEB-0474,2022,109.89,148.0,+,87.89,Active,1,LEO,French Guiana,UK,Commercial,Communications,Soyuz,1 51654U 22012AJ  25063.41770474  .00000079  00000+0  18930-3 0  9997,2 51654  87.8863 129.8921 0002202 104.7132 255.4239 13.10369242147776,13.10369242,0.0002202,LEO
51655,ONEWEB-0475,2022,109.29,148.0,+,87.9,Active,1,LEO,French Guiana,UK,Commercial,Communications,Soyuz,1 51655U 22012AK  25063.48119803  .00000022  00000+0  24532-4 0  9992,2 51655  87.9021  99.4630 0002550 109.4954 250.6453 13.17647414151837,13.17647414,0.000255,LEO
54113,ONEWEB-0490,2022,109.11,148.0,+,87.92,Active,1,LEO,India,UK,Commercial,Communications,PSLV,1 54113U 22138A   25063.90445314  .00000032  00000+0  46673-4 0  9990,2 54113  87.9185  38.2264 0002090  83.8465 276.2906 13.19724464115802,13.19724464,0.000209,LEO
